[{"OBJECT_NAME":"ICEYE-X7","OBJECT_ID":"2020-068L","EPOCH":"2026-03-09T22:52:28.702272","MEAN_MOTION":15.29152508,"ECCENTRICITY":0.00068409,"INCLINATION":97.7412,"RA_OF_ASC_NODE":31.2076,"ARG_OF_PERICENTER":332.3045,"MEAN_ANOMALY":27.7829,"EPHEMERIS_TYPE":0,"CLASSIFICATION_TYPE":"U","NORAD_CAT_ID":46496,"ELEMENT_SET_NO":999,"REV_AT_EPOCH":29961,"BSTAR":0.0005654802,"MEAN_MOTION_DOT":0.00015947,"MEAN_MOTION_DDOT":0},{"OBJECT_NAME":"STARLINK-36506","OBJECT_ID":"2026-005L","EPOCH":"2026-03-09T11:03:20.861568","MEAN_MOTION":15.27599478,"ECCENTRICITY":0.00010431,"INCLINATION":42.9969,"RA_OF_ASC_NODE":239.0803,"ARG_OF_PERICENTER":258.6367,"MEAN_ANOMALY":101.4367,"EPHEMERIS_TYPE":0,"CLASSIFICATION_TYPE":"U","NORAD_CAT_ID":67414,"ELEMENT_SET_NO":999,"REV_AT_EPOCH":866,"BSTAR":0.0010330166,"MEAN_MOTION_DOT":0.0002829,"MEAN_MOTION_DDOT":0}]
